[
    {
        "Altitude(m)": 611965.220429065,
        "Argument of Periapsis(deg)": 0.0,
        "Eccentricity": 0.0,
        "Inclination(deg)": 60.0,
        "Latitude(deg)": 59.14026787998155,
        "Longitude(deg)": 153.96995165754242,
        "Mean Anomaly(deg)": 81.8182,
        "RAAN(deg)": 180.0,
        "Satellite Name": "Test1 797",
        "Satellite Number": 797,
        "Semi-Major Axis(m)": 6980739.136638005,
        "Time(s)": 0
    },
    {
        "Altitude(m)": 611995.8453109959,
        "Argument of Periapsis(deg)": 0.00010418945913296404,
        "Eccentricity": 0.0,
        "Inclination(deg)": 60.0,
        "Latitude(deg)": 59.28336625604275,
        "Longitude(deg)": 155.10331809996183,
        "Mean Anomaly(deg)": 82.43830614546187,
        "RAAN(deg)": 179.99957995086024,
        "Satellite Name": "Test1 797",
        "Satellite Number": 797,
        "Semi-Major Axis(m)": 6980739.136638005,
        "Time(s)": 10
    }
]